ORBITAL FACTORY 2 (OF-2)
1 45113U 19071C   20238.43375827  .00001682  00000-0  62497-4 0  9995
2 45113  51.6451  30.2720 0012424 307.6615  52.3240 15.33564337 31711
M2 PATHFINDER           
1 45727U 20037E   20238.45279272  .00000208  00000-0  26400-4 0  9996
2 45727  97.7030  56.9638 0013995  72.5202 287.7648 14.91217401  8308
